GLOBALSTAR M057 [-]     
1 25943U 99058A   23245.43215188 -.00000122  00000+0 -26696-3 0  9990
2 25943  51.9998  43.4571 0003431 104.9430 255.1799 12.24771061 86825
GLOBALSTAR M059 [-]     
1 25944U 99058B   23245.22269747 -.00000119  00000+0 -40876-3 0  9990
2 25944  52.0006 176.3129 0000661  64.1922  82.1637 11.99952519495539
GLOBALSTAR M056 [-]     
1 25945U 99058C   23245.26244444 -.00000100  00000+0 -15155-3 0  9994
2 25945  51.9948 194.9678 0001102 335.2112 169.4215 12.04767847 83801
GLOBALSTAR M031 [-]     
1 25946U 99058D   23245.68520308 -.00000129  00000+0 -38778-3 0  9994
2 25946  51.9951 125.2275 0001304 318.2298  73.6323 12.15995153 85281
GLOBALSTAR M039 [-]     
1 25961U 99062A   23245.59658586 -.00000079  00000+0  13773-3 0  9997
2 25961  51.9839  99.3216 0002938 356.0641   4.0202 12.62269120 97709
GLOBALSTAR M034 [-]     
1 25962U 99062B   23245.35384615 -.00000074  00000+0  11317-3 0  9998
2 25962  51.9854 270.9298 0014090 246.0562 127.5265 11.79414568 61241
GLOBALSTAR M029 [-]     
1 25963U 99062C   23245.48962531 -.00000079  00000+0  92863-4 0  9993
2 25963  51.9806  64.1828 0001784 281.3461  94.5489 11.99867034 90657
GLOBALSTAR M061 [-]     
1 25964U 99062D   23245.57458574 -.00000084  00000+0 -65562-4 0  9994
2 25964  51.9787  85.7283 0005791 169.0143 205.8664 11.76749390 44235
